GPS BIII-9  (PRN 20)    
1 67588U 26017A   26062.99831483  .00000012  00000+0  00000+0 0  9992
2 67588  55.0184  92.9751 0001516  18.2827 341.7919  2.00560918429508
